GLOBALSTAR M063 [+]     
1 26081U 00008A   24040.20091462 -.00000057  00000+0  37939-3 0  9995
2 26081  51.9984 332.5338 0005036  84.3215  63.9957 11.86150995 98954
GLOBALSTAR M062 [-]     
1 26082U 00008B   24040.67498698 -.00000055  00000+0  31210-3 0  9993
2 26082  51.9842 107.0067 0007719 138.5037  32.7367 12.43428507 97720
GLOBALSTAR M060 [-]     
1 26083U 00008C   24041.31459076 -.00000089  00000+0  18321-4 0  9999
2 26083  52.0049 355.4067 0002982 200.6933 325.6341 12.17625194 92503
GLOBALSTAR M064 [-]     
1 26084U 00008D   24041.40049857 -.00000112  00000+0 -40542-3 0  9999
2 26084  52.0033  74.0110 0001766 181.9155 178.1671 11.88515278108611
GLOBALSTAR M065 [+]     
1 31571U 07020A   24041.13782949 -.00000070  00000+0  18744-3 0  9994
2 31571  51.9895 286.8940 0009644 298.1080 227.2476 12.61962078771461
GLOBALSTAR M069 [+]     
1 31573U 07020C   24040.05473990 -.00000065  00000+0  21687-3 0  9993
2 31573  51.9929 246.1824 0001784  81.4044  86.7375 12.62266083772147
GLOBALSTAR M072 [+]     
1 31574U 07020D   24039.95981024 -.00000080  00000+0  13026-3 0  9998
2 31574  52.0111 342.2918 0000675  19.9944  96.2299 12.62283117770403
GLOBALSTAR M071 [P]     
1 31576U 07020F   24040.77459718 -.00000073  00000+0  17130-3 0  9994
2 31576  52.0045 249.0560 0002106  90.5595 349.8806 12.62267205772151
